start=new Date('2023-06-19T00:00:00.000Z').valueOf();
sats=[{"MEAN_MOTION":"15.06400150","MEAN_MOTION_DOT":"-0.00000643","OBJECT_ID":"2021-038L","EPHEMERIS_TYPE":"0","FILE":"3936420","RCS_SIZE":"LARGE","CENTER_NAME":"EARTH","REF_FRAME":"TEME","COUNTRY_CODE":"US","OBJECT_TYPE":"PAYLOAD","MEAN_ANOMALY":"259.7050","RA_OF_ASC_NODE":"144.8892","INCLINATION":"53.0542","ARG_OF_PERICENTER":"100.4083","TLE_LINE2":"2 48363  53.0542 144.8892 0001281 100.4083 259.7050 15.06400150117075","EPOCH":"2023-06-18T08:17:40.867296","GP_ID":"234209504","NORAD_CAT_ID":"48363","SITE":"AFETR","PERIOD":"95.592","BSTAR":"-0.00002425200000","TLE_LINE1":"1 48363U 21038L   23169.34561189 -.00000643  00000-0 -24252-4 0  9990","CLASSIFICATION_TYPE":"U","DECAY_DATE":null,"REV_AT_EPOCH":"11707","ELEMENT_SET_NO":"999","MEAN_MOTION_DDOT":"0.0000000000000","OBJECT_NAME":"STARLINK-2626","TIME_SYSTEM":"UTC","APOAPSIS":"548.100","SEMIMAJOR_AXIS":"6925.348","MEAN_ELEMENT_THEORY":"SGP4","LAUNCH_DATE":"2021-05-04","PERIAPSIS":"546.326","ECCENTRICITY":"0.00012810"},{"APOAPSIS":"548.128","TIME_SYSTEM":"UTC","ELEMENT_SET_NO":"999","MEAN_MOTION_DDOT":"0.0000000000000","OBJECT_NAME":"STARLINK-2611","ECCENTRICITY":"0.00013000","LAUNCH_DATE":"2021-05-04","PERIAPSIS":"546.327","SEMIMAJOR_AXIS":"6925.363","MEAN_ELEMENT_THEORY":"SGP4","INCLINATION":"53.0543","TLE_LINE2":"2 48364  53.0543 143.8352 0001300  92.3096 267.8042 15.06395433117115","ARG_OF_PERICENTER":"92.3096","REF_FRAME":"TEME","CENTER_NAME":"EARTH","OBJECT_TYPE":"PAYLOAD","RA_OF_ASC_NODE":"143.8352","MEAN_ANOMALY":"267.8042","COUNTRY_CODE":"US","EPHEMERIS_TYPE":"0","OBJECT_ID":"2021-038M","RCS_SIZE":"LARGE","FILE":"3936745","MEAN_MOTION":"15.06395433","MEAN_MOTION_DOT":"-0.00000117","DECAY_DATE":null,"CLASSIFICATION_TYPE":"U","REV_AT_EPOCH":"11711","PERIOD":"95.592","TLE_LINE1":"1 48364U 21038M   23169.62577412 -.00000117  00000-0  11042-4 0  9996","BSTAR":"0.00001104200000","SITE":"AFETR","NORAD_CAT_ID":"48364","GP_ID":"234244720","EPOCH":"2023-06-18T15:01:06.883968"},{"MEAN_MOTION_DDOT":"0.0000000000000","ELEMENT_SET_NO":"999","OBJECT_NAME":"STARLINK-2608","TIME_SYSTEM":"UTC","APOAPSIS":"548.137","SEMIMAJOR_AXIS":"6925.376","MEAN_ELEMENT_THEORY":"SGP4","PERIAPSIS":"546.346","LAUNCH_DATE":"2021-05-04","ECCENTRICITY":"0.00012930","MEAN_MOTION":"15.06390964","MEAN_MOTION_DOT":"-0.00000487","OBJECT_ID":"2021-038N","EPHEMERIS_TYPE":"0","FILE":"3936745","RCS_SIZE":"LARGE","CENTER_NAME":"EARTH","REF_FRAME":"TEME","COUNTRY_CODE":"US","OBJECT_TYPE":"PAYLOAD","MEAN_ANOMALY":"271.4138","RA_OF_ASC_NODE":"143.5210","INCLINATION":"53.0547","ARG_OF_PERICENTER":"88.6999","TLE_LINE2":"2 48365  53.0547 143.5210 0001293  88.6999 271.4138 15.06390964117123","EPOCH":"2023-06-18T15:38:14.123040","GP_ID":"234245469","NORAD_CAT_ID":"48365","SITE":"AFETR","PERIOD":"95.593","BSTAR":"-0.00001382400000","TLE_LINE1":"1 48365U 21038N   23169.65155235 -.00000487  00000-0 -13824-4 0  9996","CLASSIFICATION_TYPE":"U","DECAY_DATE":null,"REV_AT_EPOCH":"11712"},{"SITE":"AFETR","EPOCH":"2023-06-18T15:20:18.887136","GP_ID":"234245213","NORAD_CAT_ID":"48366","DECAY_DATE":null,"CLASSIFICATION_TYPE":"U","REV_AT_EPOCH":"11718","PERIOD":"95.592","BSTAR":"0.00003192600000","TLE_LINE1":"1 48366U 21038P   23169.63910749  .00000194  00000-0  31926-4 0  9990","OBJECT_ID":"2021-038P","EPHEMERIS_TYPE":"0","FILE":"3936745","RCS_SIZE":"LARGE","MEAN_MOTION":"15.06395977","MEAN_MOTION_DOT":"0.00000194","INCLINATION":"53.0551","ARG_OF_PERICENTER":"82.6315","TLE_LINE2":"2 48366  53.0551 138.5743 0001283  82.6315 277.4820 15.06395977117188","CENTER_NAME":"EARTH","REF_FRAME":"TEME","COUNTRY_CODE":"US","OBJECT_TYPE":"PAYLOAD","MEAN_ANOMALY":"277.4820","RA_OF_ASC_NODE":"138.5743","SEMIMAJOR_AXIS":"6925.361","MEAN_ELEMENT_THEORY":"SGP4","LAUNCH_DATE":"2021-05-04","PERIAPSIS":"546.337","ECCENTRICITY":"0.00012830","ELEMENT_SET_NO":"999","MEAN_MOTION_DDOT":"0.0000000000000","OBJECT_NAME":"STARLINK-2631","TIME_SYSTEM":"UTC","APOAPSIS":"548.114"},{"SEMIMAJOR_AXIS":"6925.370","MEAN_ELEMENT_THEORY":"SGP4","ECCENTRICITY":"0.00013570","PERIAPSIS":"546.295","LAUNCH_DATE":"2021-05-04","ELEMENT_SET_NO":"999","MEAN_MOTION_DDOT":"0.0000000000000","OBJECT_NAME":"STARLINK-2643","APOAPSIS":"548.175","TIME_SYSTEM":"UTC","NORAD_CAT_ID":"48367","EPOCH":"2023-06-18T15:15:01.409472","GP_ID":"234244470","SITE":"AFETR","PERIOD":"95.593","TLE_LINE1":"1 48367U 21038Q   23169.63543298 -.00000061  00000-0  14804-4 0  9992","BSTAR":"0.00001480400000","DECAY_DATE":null,"CLASSIFICATION_TYPE":"U","REV_AT_EPOCH":"11718","MEAN_MOTION":"15.06392954","MEAN_MOTION_DOT":"-0.00000061","OBJECT_ID":"2021-038Q","EPHEMERIS_TYPE":"0","RCS_SIZE":"LARGE","FILE":"3936745","REF_FRAME":"TEME","CENTER_NAME":"EARTH","OBJECT_TYPE":"PAYLOAD","RA_OF_ASC_NODE":"138.5881","MEAN_ANOMALY":"271.3687","COUNTRY_CODE":"US","INCLINATION":"53.0536","ARG_OF_PERICENTER":"88.7458","TLE_LINE2":"2 48367  53.0536 138.5881 0001357  88.7458 271.3687 15.06392954117188"},{"PERIOD":"95.593","TLE_LINE1":"1 48368U 21038R   23169.87872355  .00001573  00000-0  12451-3 0  9991","BSTAR":"0.00012451000000","CLASSIFICATION_TYPE":"U","DECAY_DATE":null,"REV_AT_EPOCH":"11722","NORAD_CAT_ID":"48368","EPOCH":"2023-06-18T21:05:21.714720","GP_ID":"234244221","SITE":"AFETR","REF_FRAME":"TEME","CENTER_NAME":"EARTH","RA_OF_ASC_NODE":"137.7816","OBJECT_TYPE":"PAYLOAD","MEAN_ANOMALY":"251.3375","COUNTRY_CODE":"US","INCLINATION":"53.0553","ARG_OF_PERICENTER":"108.7754","TLE_LINE2":"2 48368  53.0553 137.7816 0001289 108.7754 251.3375 15.06392599117225","MEAN_MOTION":"15.06392599","MEAN_MOTION_DOT":"0.00001573","OBJECT_ID":"2021-038R","EPHEMERIS_TYPE":"0","RCS_SIZE":"LARGE","FILE":"3936745","ECCENTRICITY":"0.00012890","PERIAPSIS":"546.344","LAUNCH_DATE":"2021-05-04","SEMIMAJOR_AXIS":"6925.371","MEAN_ELEMENT_THEORY":"SGP4","APOAPSIS":"548.129","TIME_SYSTEM":"UTC","MEAN_MOTION_DDOT":"0.0000000000000","ELEMENT_SET_NO":"999","OBJECT_NAME":"STARLINK-2623"},{"SEMIMAJOR_AXIS":"6925.360","MEAN_ELEMENT_THEORY":"SGP4","PERIAPSIS":"546.415","LAUNCH_DATE":"2021-05-04","ECCENTRICITY":"0.00011690","ELEMENT_SET_NO":"999","MEAN_MOTION_DDOT":"0.0000000000000","OBJECT_NAME":"STARLINK-2641","TIME_SYSTEM":"UTC","APOAPSIS":"548.034","SITE":"AFETR","GP_ID":"234244970","EPOCH":"2023-06-18T15:09:42.494112","NORAD_CAT_ID":"48369","DECAY_DATE":null,"CLASSIFICATION_TYPE":"U","REV_AT_EPOCH":"11718","PERIOD":"95.592","BSTAR":"-0.00004630300000","TLE_LINE1":"1 48369U 21038S   23169.63174183 -.00000971  00000-0 -46303-4 0  9997","OBJECT_ID":"2021-038S","EPHEMERIS_TYPE":"0","FILE":"3936745","RCS_SIZE":"LARGE","MEAN_MOTION":"15.06396428","MEAN_MOTION_DOT":"-0.00000971","INCLINATION":"53.0543","ARG_OF_PERICENTER":"91.9875","TLE_LINE2":"2 48369  53.0543 138.6078 0001169  91.9875 268.1248 15.06396428117184","CENTER_NAME":"EARTH","REF_FRAME":"TEME","COUNTRY_CODE":"US","OBJECT_TYPE":"PAYLOAD","RA_OF_ASC_NODE":"138.6078","MEAN_ANOMALY":"268.1248"},{"TLE_LINE1":"1 48370U 21038T   23169.62805810 -.00000850  00000-0 -38222-4 0  9993","BSTAR":"-0.00003822200000","PERIOD":"95.593","REV_AT_EPOCH":"11718","DECAY_DATE":null,"CLASSIFICATION_TYPE":"U","NORAD_CAT_ID":"48370","GP_ID":"234245713","EPOCH":"2023-06-18T15:04:24.219840","SITE":"AFETR","MEAN_ANOMALY":"268.5026","OBJECT_TYPE":"PAYLOAD","RA_OF_ASC_NODE":"138.6237","COUNTRY_CODE":"US","REF_FRAME":"TEME","CENTER_NAME":"EARTH","TLE_LINE2":"2 48370  53.0545 138.6237 0001217  91.6102 268.5026 15.06390761117181","ARG_OF_PERICENTER":"91.6102","INCLINATION":"53.0545","MEAN_MOTION_DOT":"-0.00000850","MEAN_MOTION":"15.06390761","RCS_SIZE":"LARGE","FILE":"3936745","EPHEMERIS_TYPE":"0","OBJECT_ID":"2021-038T","ECCENTRICITY":"0.00012170","PERIAPSIS":"546.399","LAUNCH_DATE":"2021-05-04","MEAN_ELEMENT_THEORY":"SGP4","SEMIMAJOR_AXIS":"6925.377","APOAPSIS":"548.085","TIME_SYSTEM":"UTC","OBJECT_NAME":"STARLINK-2621","ELEMENT_SET_NO":"999","MEAN_MOTION_DDOT":"0.0000000000000"},{"ECCENTRICITY":"0.00013820","PERIAPSIS":"546.269","LAUNCH_DATE":"2021-05-04","MEAN_ELEMENT_THEORY":"SGP4","SEMIMAJOR_AXIS":"6925.361","APOAPSIS":"548.183","TIME_SYSTEM":"UTC","OBJECT_NAME":"STARLINK-2589","MEAN_MOTION_DDOT":"0.0000000000000","ELEMENT_SET_NO":"999","REV_AT_EPOCH":"11718","CLASSIFICATION_TYPE":"U","DECAY_DATE":null,"TLE_LINE1":"1 48371U 21038U   23169.62436967  .00000099  00000-0  25565-4 0  9996","BSTAR":"0.00002556500000","PERIOD":"95.592","SITE":"AFETR","NORAD_CAT_ID":"48371","GP_ID":"234243971","EPOCH":"2023-06-18T14:59:05.539488","TLE_LINE2":"2 48371  53.0544 138.6430 0001382  90.2982 269.8166 15.06395829117189","ARG_OF_PERICENTER":"90.2982","INCLINATION":"53.0544","OBJECT_TYPE":"PAYLOAD","MEAN_ANOMALY":"269.8166","RA_OF_ASC_NODE":"138.6430","COUNTRY_CODE":"US","REF_FRAME":"TEME","CENTER_NAME":"EARTH","RCS_SIZE":"LARGE","FILE":"3936745","OBJECT_ID":"2021-038U","EPHEMERIS_TYPE":"0","MEAN_MOTION_DOT":"0.00000099","MEAN_MOTION":"15.06395829"},{"TIME_SYSTEM":"UTC","APOAPSIS":"548.167","OBJECT_NAME":"STARLINK-2572","ELEMENT_SET_NO":"999","MEAN_MOTION_DDOT":"0.0000000000000","PERIAPSIS":"546.312","LAUNCH_DATE":"2021-05-04","ECCENTRICITY":"0.00013390","MEAN_ELEMENT_THEORY":"SGP4","SEMIMAJOR_AXIS":"6925.375","TLE_LINE2":"2 48372  53.0545 137.4668 0001339  94.3537 265.7605 15.06391455117223","ARG_OF_PERICENTER":"94.3537","INCLINATION":"53.0545","COUNTRY_CODE":"US","OBJECT_TYPE":"PAYLOAD","RA_OF_ASC_NODE":"137.4668","MEAN_ANOMALY":"265.7605","CENTER_NAME":"EARTH","REF_FRAME":"TEME","FILE":"3936745","RCS_SIZE":"LARGE","EPHEMERIS_TYPE":"0","OBJECT_ID":"2021-038V","MEAN_MOTION_DOT":"0.00000169","MEAN_MOTION":"15.06391455","REV_AT_EPOCH":"11722","CLASSIFICATION_TYPE":"U","DECAY_DATE":null,"BSTAR":"0.00003024300000","TLE_LINE1":"1 48372U 21038V   23169.88607444  .00000169  00000-0  30243-4 0  9992","PERIOD":"95.593","SITE":"AFETR","GP_ID":"234244721","EPOCH":"2023-06-18T21:15:56.831616","NORAD_CAT_ID":"48372"}];
